{
  "type": "FeatureCollection",
  "features": [
    {
      "type": "Feature",
      "properties": {
        "norad_id": 38857,
        "name": "GSAT0103 (GALILEO-FM3)",
        "group": "gnss",
        "lat": -50.63070048296097,
        "lon": 50.62868237749916,
        "alt_km": 23221.814592768093,
        "timestamp": "2025-12-02T06:27:53.256378+00:00",
        "meta_object_name": "GSAT0103 (GALILEO-FM3)",
        "meta_object_id": "2012-055A",
        "meta_epoch": "2025-11-28T20:42:38.723616",
        "meta_mean_motion": 1.70473322,
        "meta_eccentricity": 0.00022412,
        "meta_inclination": 55.6842,
        "meta_ra_of_asc_node": 107.0477,
        "meta_arg_of_pericenter": 266.7022,
        "meta_mean_anomaly": 93.2527,
        "meta_ephemeris_type": 0,
        "meta_classification_type": "U",
        "meta_norad_cat_id": 38857,
        "meta_element_set_no": 999,
        "meta_rev_at_epoch": 8159,
        "meta_bstar": 0,
        "meta_mean_motion_dot": 5.5e-07,
        "meta_mean_motion_ddot": 0,
        "tle_line1": "1 38857U 12055A   25332.86294819  .00000055  00000+0  00000+0 0  9994",
        "tle_line2": "2 38857  55.6842 107.0477 0002241 266.7022  93.2527  1.70473322 81593"
      },
      "geometry": {
        "type": "Point",
        "coordinates": [
          50.62868237749916,
          -50.63070048296097
        ]
      }
    },
    {
      "type": "Feature",
      "properties": {
        "norad_id": 38953,
        "name": "BEIDOU-2 G6 (C02)",
        "group": "gnss",
        "lat": 0.2032237770878945,
        "lon": -107.68956930166536,
        "alt_km": 35798.93989391234,
        "timestamp": "2025-12-02T06:27:53.256390+00:00",
        "meta_object_name": "BEIDOU-2 G6 (C02)",
        "meta_object_id": "2012-059A",
        "meta_epoch": "2025-12-01T19:21:04.956768",
        "meta_mean_motion": 1.00271055,
        "meta_eccentricity": 0.0007266,
        "meta_inclination": 3.919,
        "meta_ra_of_asc_node": 75.6094,
        "meta_arg_of_pericenter": 290.8925,
        "meta_mean_anomaly": 78.7424,
        "meta_ephemeris_type": 0,
        "meta_classification_type": "U",
        "meta_norad_cat_id": 38953,
        "meta_element_set_no": 999,
        "meta_rev_at_epoch": 4793,
        "meta_bstar": 0,
        "meta_mean_motion_dot": -1.55e-06,
        "meta_mean_motion_ddot": 0,
        "tle_line1": "1 38953U 12059A   25335.80630737 -.00000155  00000+0  00000+0 0  9997",
        "tle_line2": "2 38953   3.9190  75.6094 0007266 290.8925  78.7424  1.00271055 47935"
      },
      "geometry": {
        "type": "Point",
        "coordinates": [
          -107.68956930166536,
          0.2032237770878945
        ]
      }
    },
    {
      "type": "Feature",
      "properties": {
        "norad_id": 38977,
        "name": "LUCH 5B (SDCM/PRN 125)",
        "group": "gnss",
        "lat": 9.900535144101461,
        "lon": 152.03233312394866,
        "alt_km": 35784.67823877457,
        "timestamp": "2025-12-02T06:27:53.256401+00:00",
        "meta_object_name": "LUCH 5B (SDCM/PRN 125)",
        "meta_object_id": "2012-061A",
        "meta_epoch": "2025-12-01T15:39:07.645248",
        "meta_mean_motion": 1.00269115,
        "meta_eccentricity": 0.00075781,
        "meta_inclination": 10.0556,
        "meta_ra_of_asc_node": 51.8055,
        "meta_arg_of_pericenter": 188.4335,
        "meta_mean_anomaly": 48.9483,
        "meta_ephemeris_type": 0,
        "meta_classification_type": "U",
        "meta_norad_cat_id": 38977,
        "meta_element_set_no": 999,
        "meta_rev_at_epoch": 4762,
        "meta_bstar": 0,
        "meta_mean_motion_dot": -1.22e-06,
        "meta_mean_motion_ddot": 0,
        "tle_line1": "1 38977U 12061A   25335.65217182 -.00000122  00000+0  00000+0 0  9998",
        "tle_line2": "2 38977  10.0556  51.8055 0007578 188.4335  48.9483  1.00269115 47626"
      },
      "geometry": {
        "type": "Point",
        "coordinates": [
          152.03233312394866,
          9.900535144101461
        ]
      }
    },
    {
      "type": "Feature",
      "properties": {
        "norad_id": 39155,
        "name": "COSMOS 2485 (747)",
        "group": "gnss",
        "lat": -14.675276597517968,
        "lon": 73.30661981538587,
        "alt_km": 19159.10358993844,
        "timestamp": "2025-12-02T06:27:53.256417+00:00",
        "meta_object_name": "COSMOS 2485 (747)",
        "meta_object_id": "2013-019A",
        "meta_epoch": "2025-11-24T07:30:54.982368",
        "meta_mean_motion": 2.13103115,
        "meta_eccentricity": 0.0024274,
        "meta_inclination": 65.3036,
        "meta_ra_of_asc_node": 80.4871,
        "meta_arg_of_pericenter": 228.0776,
        "meta_mean_anomaly": 131.7167,
        "meta_ephemeris_type": 0,
        "meta_classification_type": "U",
        "meta_norad_cat_id": 39155,
        "meta_element_set_no": 999,
        "meta_rev_at_epoch": 9791,
        "meta_bstar": 0,
        "meta_mean_motion_dot": 1.2e-07,
        "meta_mean_motion_ddot": 0,
        "tle_line1": "1 39155U 13019A   25328.31313637  .00000012  00000+0  00000+0 0  9995",
        "tle_line2": "2 39155  65.3036  80.4871 0024274 228.0776 131.7167  2.13103115 97916"
      },
      "geometry": {
        "type": "Point",
        "coordinates": [
          73.30661981538587,
          -14.675276597517968
        ]
      }
    },
    {
      "type": "Feature",
      "properties": {
        "norad_id": 39166,
        "name": "GPS BIIF-4  (PRN 27)",
        "group": "gnss",
        "lat": 14.54790158099901,
        "lon": -72.42987052689872,
        "alt_km": 19865.92457296207,
        "timestamp": "2025-12-02T06:27:53.256428+00:00",
        "meta_object_name": "GPS BIIF-4  (PRN 27)",
        "meta_object_id": "2013-023A",
        "meta_epoch": "2025-12-01T05:56:59.212320",
        "meta_mean_motion": 2.00565063,
        "meta_eccentricity": 0.0137183,
        "meta_inclination": 54.6621,
        "meta_ra_of_asc_node": 277.0355,
        "meta_arg_of_pericenter": 48.4881,
        "meta_mean_anomaly": 312.6778,
        "meta_ephemeris_type": 0,
        "meta_classification_type": "U",
        "meta_norad_cat_id": 39166,
        "meta_element_set_no": 999,
        "meta_rev_at_epoch": 9191,
        "meta_bstar": 0,
        "meta_mean_motion_dot": -4e-07,
        "meta_mean_motion_ddot": 0,
        "tle_line1": "1 39166U 13023A   25335.24790755 -.00000040  00000+0  00000+0 0  9994",
        "tle_line2": "2 39166  54.6621 277.0355 0137183  48.4881 312.6778  2.00565063 91917"
      },
      "geometry": {
        "type": "Point",
        "coordinates": [
          -72.42987052689872,
          14.54790158099901
        ]
      }
    },
    {
      "type": "Feature",
      "properties": {
        "norad_id": 39199,
        "name": "IRNSS-1A",
        "group": "gnss",
        "lat": 13.20324105741807,
        "lon": -132.66660586458022,
        "alt_km": 35702.075961939525,
        "timestamp": "2025-12-02T06:27:53.256442+00:00",
        "meta_object_name": "IRNSS-1A",
        "meta_object_id": "2013-034A",
        "meta_epoch": "2025-11-29T20:16:50.456352",
        "meta_mean_motion": 1.00278191,
        "meta_eccentricity": 0.00217208,
        "meta_inclination": 35.2795,
        "meta_ra_of_asc_node": 66.7394,
        "meta_arg_of_pericenter": 185.4975,
        "meta_mean_anomaly": 176.0627,
        "meta_ephemeris_type": 0,
        "meta_classification_type": "U",
        "meta_norad_cat_id": 39199,
        "meta_element_set_no": 999,
        "meta_rev_at_epoch": 4537,
        "meta_bstar": 0,
        "meta_mean_motion_dot": 8.1e-07,
        "meta_mean_motion_ddot": 0,
        "tle_line1": "1 39199U 13034A   25333.84502843  .00000081  00000+0  00000+0 0  9999",
        "tle_line2": "2 39199  35.2795  66.7394 0021720 185.4975 176.0627  1.00278191 45377"
      },
      "geometry": {
        "type": "Point",
        "coordinates": [
          -132.66660586458022,
          13.20324105741807
        ]
      }
    },
    {
      "type": "Feature",
      "properties": {
        "norad_id": 39533,
        "name": "GPS BIIF-5  (PRN 30)",
        "group": "gnss",
        "lat": 16.903755887107188,
        "lon": 170.29554639732314,
        "alt_km": 20368.628750797,
        "timestamp": "2025-12-02T06:27:53.256454+00:00",
        "meta_object_name": "GPS BIIF-5  (PRN 30)",
        "meta_object_id": "2014-008A",
        "meta_epoch": "2025-11-29T05:57:39.103200",
        "meta_mean_motion": 2.00573621,
        "meta_eccentricity": 0.00788834,
        "meta_inclination": 53.629,
        "meta_ra_of_asc_node": 157.4751,
        "meta_arg_of_pericenter": 226.3092,
        "meta_mean_anomaly": 133.082,
        "meta_ephemeris_type": 0,
        "meta_classification_type": "U",
        "meta_norad_cat_id": 39533,
        "meta_element_set_no": 999,
        "meta_rev_at_epoch": 8567,
        "meta_bstar": 0,
        "meta_mean_motion_dot": 1.23e-06,
        "meta_mean_motion_ddot": 0,
        "tle_line1": "1 39533U 14008A   25333.24836925  .00000123  00000+0  00000+0 0  9995",
        "tle_line2": "2 39533  53.6290 157.4751 0078883 226.3092 133.0820  2.00573621 85677"
      },
      "geometry": {
        "type": "Point",
        "coordinates": [
          170.29554639732314,
          16.903755887107188
        ]
      }
    }
  ]
}